[{"OBJECT_NAME":"STARLINK-5269","OBJECT_ID":"2022-141E","EPOCH":"2026-03-09T06:40:36.283008","MEAN_MOTION":15.08835179,"ECCENTRICITY":0.00014233,"INCLINATION":53.2194,"RA_OF_ASC_NODE":16.0719,"ARG_OF_PERICENTER":103.8186,"MEAN_ANOMALY":256.2964,"EPHEMERIS_TYPE":0,"CLASSIFICATION_TYPE":"U","NORAD_CAT_ID":54161,"ELEMENT_SET_NO":999,"REV_AT_EPOCH":18565,"BSTAR":-3.9571199e-5,"MEAN_MOTION_DOT":-9.18e-6,"MEAN_MOTION_DDOT":0},{"OBJECT_NAME":"FENGYUN 1C DEB","OBJECT_ID":"1999-025ANY","EPOCH":"2026-03-09T08:51:51.179904","MEAN_MOTION":14.80233032,"ECCENTRICITY":0.01316132,"INCLINATION":98.9514,"RA_OF_ASC_NODE":17.5129,"ARG_OF_PERICENTER":213.735,"MEAN_ANOMALY":278.8739,"EPHEMERIS_TYPE":0,"CLASSIFICATION_TYPE":"U","NORAD_CAT_ID":30641,"ELEMENT_SET_NO":999,"REV_AT_EPOCH":1813,"BSTAR":0.00059169636,"MEAN_MOTION_DOT":5.147e-5,"MEAN_MOTION_DDOT":0}]
